{
  "links" : {
    "next" : "https://api.nasa.gov/neo/rest/v1/feed?start_date=2001-06-09&end_date=2001-06-09&detailed=true&api_key=t0TVs3DtDT2H8Oy2Zy8m2eVrNsAVKAexjcZXUckd",
    "prev" : "https://api.nasa.gov/neo/rest/v1/feed?start_date=2001-06-07&end_date=2001-06-07&detailed=true&api_key=t0TVs3DtDT2H8Oy2Zy8m2eVrNsAVKAexjcZXUckd",
    "self" : "https://api.nasa.gov/neo/rest/v1/feed?start_date=2001-06-08&end_date=2001-06-08&detailed=true&api_key=t0TVs3DtDT2H8Oy2Zy8m2eVrNsAVKAexjcZXUckd"
  },
  "element_count" : 5,
  "near_earth_objects" : {
    "2001-06-08" : [ {
      "links" : {
        "self" : "https://api.nasa.gov/neo/rest/v1/neo/2001865?api_key=t0TVs3DtDT2H8Oy2Zy8m2eVrNsAVKAexjcZXUckd"
      },
      "neo_reference_id" : "2001865",
      "name" : "1865 Cerberus (1971 UA)",
      "nasa_jpl_url" : "http://ssd.jpl.nasa.gov/sbdb.cgi?sstr=2001865",
      "absolute_magnitude_h" : 16.84,
      "estimated_diameter" : {
        "kilometers" : {
          "estimated_diameter_min" : 1.1390819672,
          "estimated_diameter_max" : 2.5470647106
        },
        "meters" : {
          "estimated_diameter_min" : 1139.0819672164,
          "estimated_diameter_max" : 2547.06471064
        },
        "miles" : {
          "estimated_diameter_min" : 0.7077925011,
          "estimated_diameter_max" : 1.5826721463
        },
        "feet" : {
          "estimated_diameter_min" : 3737.1456813222,
          "estimated_diameter_max" : 8356.5117852563
        }
      },
      "is_potentially_hazardous_asteroid" : false,
      "close_approach_data" : [ {
        "close_approach_date" : "2001-06-08",
        "epoch_date_close_approach" : 991983600000,
        "relative_velocity" : {
          "kilometers_per_second" : "13.8293669347",
          "kilometers_per_hour" : "49785.7209649553",
          "miles_per_hour" : "30934.9108962524"
        },
        "miss_distance" : {
          "astronomical" : "0.2948872751",
          "lunar" : "114.711151123",
          "kilometers" : "44114508",
          "miles" : "27411484"
        },
        "orbiting_body" : "Earth"
      } ],
      "orbital_data" : {
        "orbit_id" : "132",
        "orbit_determination_date" : "2017-09-24 06:23:10",
        "orbit_uncertainty" : "0",
        "minimum_orbit_intersection" : ".156723",
        "jupiter_tisserand_invariant" : "5.592",
        "epoch_osculation" : "2458000.5",
        "eccentricity" : ".4669292990846969",
        "semi_major_axis" : "1.080053998072658",
        "inclination" : "16.09515254272102",
        "ascending_node_longitude" : "212.9283887102408",
        "orbital_period" : "409.9837374654002",
        "perihelion_distance" : ".5757451417789672",
        "perihelion_argument" : "325.2563176850205",
        "aphelion_distance" : "1.584362854366349",
        "perihelion_time" : "2458176.803346628482",
        "mean_anomaly" : "205.190921038399",
        "mean_motion" : ".8780836094270239",
        "equinox" : "J2000"
      }
    }, {
      "links" : {
        "self" : "https://api.nasa.gov/neo/rest/v1/neo/2189630?api_key=t0TVs3DtDT2H8Oy2Zy8m2eVrNsAVKAexjcZXUckd"
      },
      "neo_reference_id" : "2189630",
      "name" : "189630 (2001 LE6)",
      "nasa_jpl_url" : "http://ssd.jpl.nasa.gov/sbdb.cgi?sstr=2189630",
      "absolute_magnitude_h" : 17.8,
      "estimated_diameter" : {
        "kilometers" : {
          "estimated_diameter_min" : 0.7320739893,
          "estimated_diameter_max" : 1.6369672047
        },
        "meters" : {
          "estimated_diameter_min" : 732.0739893473,
          "estimated_diameter_max" : 1636.96720474
        },
        "miles" : {
          "estimated_diameter_min" : 0.4548895468,
          "estimated_diameter_max" : 1.017163949
        },
        "feet" : {
          "estimated_diameter_min" : 2401.8176272101,
          "estimated_diameter_max" : 5370.6274839991
        }
      },
      "is_potentially_hazardous_asteroid" : false,
      "close_approach_data" : [ {
        "close_approach_date" : "2001-06-08",
        "epoch_date_close_approach" : 991983600000,
        "relative_velocity" : {
          "kilometers_per_second" : "14.3917821665",
          "kilometers_per_hour" : "51810.4157994295",
          "miles_per_hour" : "32192.9775282622"
        },
        "miss_distance" : {
          "astronomical" : "0.4616293123",
          "lunar" : "179.5737915039",
          "kilometers" : "69058760",
          "miles" : "42911124"
        },
        "orbiting_body" : "Earth"
      } ],
      "orbital_data" : {
        "orbit_id" : "58",
        "orbit_determination_date" : "2017-06-22 06:21:44",
        "orbit_uncertainty" : "0",
        "minimum_orbit_intersection" : ".126462",
        "jupiter_tisserand_invariant" : "4.992",
        "epoch_osculation" : "2458000.5",
        "eccentricity" : ".693052275559326",
        "semi_major_axis" : "1.205977678707015",
        "inclination" : "12.6295384519669",
        "ascending_node_longitude" : "290.5683790572897",
        "orbital_period" : "483.7347994085201",
        "perihelion_distance" : ".3701721042053644",
        "perihelion_argument" : "201.5142518817539",
        "aphelion_distance" : "2.041783253208665",
        "perihelion_time" : "2457792.690778081686",
        "mean_anomaly" : "154.6535828765421",
        "mean_motion" : ".7442094313664945",
        "equinox" : "J2000"
      }
    }, {
      "links" : {
        "self" : "https://api.nasa.gov/neo/rest/v1/neo/2341050?api_key=t0TVs3DtDT2H8Oy2Zy8m2eVrNsAVKAexjcZXUckd"
      },
      "neo_reference_id" : "2341050",
      "name" : "341050 (2007 HZ)",
      "nasa_jpl_url" : "http://ssd.jpl.nasa.gov/sbdb.cgi?sstr=2341050",
      "absolute_magnitude_h" : 20.3,
      "estimated_diameter" : {
        "kilometers" : {
          "estimated_diameter_min" : 0.2315021222,
          "estimated_diameter_max" : 0.5176544822
        },
        "meters" : {
          "estimated_diameter_min" : 231.5021222103,
          "estimated_diameter_max" : 517.6544821978
        },
        "miles" : {
          "estimated_diameter_min" : 0.1438487052,
          "estimated_diameter_max" : 0.3216554833
        },
        "feet" : {
          "estimated_diameter_min" : 759.5214226325,
          "estimated_diameter_max" : 1698.3415313737
        }
      },
      "is_potentially_hazardous_asteroid" : false,
      "close_approach_data" : [ {
        "close_approach_date" : "2001-06-08",
        "epoch_date_close_approach" : 991983600000,
        "relative_velocity" : {
          "kilometers_per_second" : "6.8759053705",
          "kilometers_per_hour" : "24753.2593337729",
          "miles_per_hour" : "15380.7127232546"
        },
        "miss_distance" : {
          "astronomical" : "0.4963762775",
          "lunar" : "193.0903778076",
          "kilometers" : "74256832",
          "miles" : "46141056"
        },
        "orbiting_body" : "Earth"
      } ],
      "orbital_data" : {
        "orbit_id" : "64",
        "orbit_determination_date" : "2017-04-06 09:23:17",
        "orbit_uncertainty" : "0",
        "minimum_orbit_intersection" : ".203225",
        "jupiter_tisserand_invariant" : "4.907",
        "epoch_osculation" : "2458000.5",
        "eccentricity" : ".1424733737427288",
        "semi_major_axis" : "1.329180740455743",
        "inclination" : "7.418828454978573",
        "ascending_node_longitude" : "208.3570175944874",
        "orbital_period" : "559.7247185038677",
        "perihelion_distance" : "1.139807876049155",
        "perihelion_argument" : "259.0651523723682",
        "aphelion_distance" : "1.518553604862331",
        "perihelion_time" : "2458000.149070890995",
        "mean_anomaly" : ".2257082366838677",
        "mean_motion" : ".6431733101983995",
        "equinox" : "J2000"
      }
    } ]
  }
}